OBJECT_NAME,OBJECT_ID,EPOCH,MEAN_MOTION,ECCENTRICITY,INCLINATION,RA_OF_ASC_NODE,ARG_OF_PERICENTER,MEAN_ANOMALY,EPHEMERIS_TYPE,CLASSIFICATION_TYPE,NORAD_CAT_ID,ELEMENT_SET_NO,REV_AT_EPOCH,BSTAR,MEAN_MOTION_DOT,MEAN_MOTION_DDOT
ONEWEB-0534,2023-029B,2026-06-30T22:35:57.011712,13.20772678,.00019377,87.9184,271.7282,102.8219,257.3131,0,U,55797,999,16296,-.12869148E-3,-.39E-6,0
ONEWEB-0556,2023-029C,2026-06-30T22:45:37.590336,13.20770516,.00011793,87.9184,271.7254,89.3945,270.7323,0,U,55798,999,16296,-.95006385E-4,-.26E-6,0
ONEWEB-0562,2023-029D,2026-06-30T16:58:59.531808,13.20771614,.00018114,87.9186,271.7546,74.4085,285.7249,0,U,55799,999,16293,-.22223606E-4,.4E-7,0
ONEWEB-0563,2023-029E,2026-06-30T16:51:42.647616,13.20773023,.00018995,87.9185,271.7858,105.6664,254.4679,0,U,55800,999,16292,-.48899411E-4,-.7E-7,0
ONEWEB-0564,2023-029F,2026-06-30T07:36:35.069184,13.20772014,.00019561,87.9186,271.8363,88.7397,271.3961,0,U,55801,999,16288,.15327542E-3,.75E-6,0
ONEWEB-0638,2023-029G,2026-06-30T17:07:41.901024,13.14503150,.00015043,87.8961,287.0552,89.6386,270.4916,0,U,55802,999,16117,-.10311132E-2,-.369E-5,0
ONEWEB-0639,2023-029H,2026-06-30T18:06:49.967136,13.19725564,.00019953,87.9180,302.2733,129.0904,231.0407,0,U,55803,999,16069,.90323721E-4,.49E-6,0
ONEWEB-0640,2023-029J,2026-06-30T17:21:23.763744,13.14502840,.00012822,87.8961,287.0441,103.4721,256.6551,0,U,55804,999,16119,-.40049436E-3,-.136E-5,0
ONEWEB-0641,2023-029K,2026-06-30T18:00:01.170720,13.19726008,.00019386,87.9191,302.2647,105.8595,254.2752,0,U,55805,999,16070,.10119134E-3,.53E-6,0
ONEWEB-0642,2023-029L,2026-06-30T08:47:19.812192,13.19725820,.00021364,87.9189,302.3525,124.2091,235.9245,0,U,55806,999,16064,-.86351318E-4,-.22E-6,0
ONEWEB-0643,2023-029M,2026-06-30T07:29:57.869376,13.14503726,.00023386,87.8963,287.1132,116.3824,243.7546,0,U,55807,999,16111,-.31966065E-3,-.106E-5,0
ONEWEB-0644,2023-029N,2026-06-30T17:46:23.057760,13.19725223,.00020397,87.9181,302.2787,111.0484,249.0868,0,U,55808,999,16069,.13144744E-3,.66E-6,0
ONEWEB-0645,2023-029P,2026-06-30T09:12:20.596608,13.19724915,.00016112,87.9179,302.3464,112.1317,247.9987,0,U,55809,999,16064,.15526114E-3,.75E-6,0
ONEWEB-0646,2023-029Q,2026-06-30T07:48:11.289024,13.19725927,.00019821,87.9178,302.3587,108.5777,251.5571,0,U,55810,999,16062,.43493495E-4,.3E-6,0
ONEWEB-0648,2023-029R,2026-06-30T06:44:18.242880,13.14501874,.00016904,87.8972,287.0944,129.0619,231.0661,0,U,55811,999,16111,.6902652E-3,.269E-5,0
ONEWEB-0649,2023-029S,2026-06-30T17:30:26.974368,13.19726266,.00017858,87.9180,302.2756,107.5606,252.5722,0,U,55812,999,16071,.630301E-5,.15E-6,0
ONEWEB-0650,2023-029T,2026-06-30T08:17:44.525472,13.19727395,.00020522,87.9181,302.3545,118.2612,241.8728,0,U,55813,999,16063,-.36270053E-3,-.132E-5,0
ONEWEB-0652,2023-029U,2026-06-30T17:14:32.827200,13.14502070,.00020563,87.8971,287.0141,96.5060,263.6304,0,U,55814,999,16114,-.9905204E-4,-.24E-6,0
ONEWEB-0653,2023-029V,2026-06-30T18:41:18.373632,13.14501998,.0001905,87.8972,287.0005,99.0467,261.0879,0,U,55815,999,16118,-.75689156E-3,-.268E-5,0
ONEWEB-0654,2023-029W,2026-06-30T16:44:50.738208,13.14501339,.0001996,87.8972,287.0123,89.7189,270.4169,0,U,55816,999,16119,-.41130671E-3,-.14E-5,0
ONEWEB-0656,2023-029X,2026-06-30T07:26:50.884224,13.20773840,.00021306,87.9198,271.8152,87.9938,272.1439,0,U,55817,999,16288,.3300072E-4,.26E-6,0
ONEWEB-0657,2023-029Y,2026-06-30T19:05:59.715456,13.19725877,.00025625,87.9180,302.2635,93.6471,266.4955,0,U,55818,999,16070,-.35644034E-4,-.1E-7,0
ONEWEB-0658,2023-029Z,2026-06-30T09:53:17.481696,13.19725524,.00020215,87.9189,302.3167,112.3023,247.8324,0,U,55819,999,16066,.13453543E-3,.67E-6,0
ONEWEB-0660,2023-029AA,2026-06-30T07:04:49.797120,13.14503927,.0001683,87.8979,287.0867,104.6850,255.4467,0,U,55820,999,16112,.16989455E-3,.76E-6,0
ONEWEB-0661,2023-029AB,2026-06-30T17:03:08.089920,13.14503143,.00016368,87.8963,287.0471,101.8175,258.3138,0,U,55821,999,16116,-.83540082E-3,-.297E-5,0
ONEWEB-0662,2023-029AC,2026-06-30T17:53:22.503840,13.14503397,.00016908,87.8959,287.0457,106.3989,253.7326,0,U,55822,999,16121,.5999109E-3,.235E-5,0
ONEWEB-0663,2023-029AD,2026-06-30T22:46:39.174528,13.20870595,.00018431,87.9199,271.7594,112.2322,247.9007,0,U,55823,999,16296,-.1172072E-3,-.35E-6,0
ONEWEB-0664,2023-029AE,2026-06-30T16:12:56.605824,13.20771098,.0001599,87.9182,271.7932,92.1068,268.0248,0,U,55824,999,16292,.15761955E-3,.77E-6,0
ONEWEB-0665,2023-029AF,2026-06-30T16:58:33.751776,13.14503758,.00017288,87.8964,287.0286,108.7410,251.3908,0,U,55825,999,16118,-.85078755E-3,-.303E-5,0
ONEWEB-0666,2023-029AG,2026-06-30T06:57:47.134368,13.20772180,.00027078,87.9186,271.8604,95.1412,265.0031,0,U,55826,999,16288,-.7679419E-5,.1E-6,0
