[
  {
    "name": "ONEWEB-0534",
    "noradId": "55797",
    "line1": "1 55797U 23029B   26181.94163208 -.00000039  00000+0 -12869-3 0  9992",
    "line2": "2 55797  87.9184 271.7282 0001937 102.8219 257.3131 13.20772678162963"
  },
  {
    "name": "ONEWEB-0556",
    "noradId": "55798",
    "line1": "1 55798U 23029C   26181.94835174 -.00000026  00000+0 -95006-4 0  9992",
    "line2": "2 55798  87.9184 271.7254 0001179  89.3945 270.7323 13.20770516162967"
  },
  {
    "name": "ONEWEB-0562",
    "noradId": "55799",
    "line1": "1 55799U 23029D   26181.70763347  .00000004  00000+0 -22224-4 0  9996",
    "line2": "2 55799  87.9186 271.7546 0001811  74.4085 285.7249 13.20771614162937"
  },
  {
    "name": "ONEWEB-0563",
    "noradId": "55800",
    "line1": "1 55800U 23029E   26181.70257694 -.00000007  00000+0 -48899-4 0  9992",
    "line2": "2 55800  87.9185 271.7858 0001899 105.6664 254.4679 13.20773023162926"
  },
  {
    "name": "ONEWEB-0564",
    "noradId": "55801",
    "line1": "1 55801U 23029F   26181.31707256  .00000075  00000+0  15328-3 0  9997",
    "line2": "2 55801  87.9186 271.8363 0001956  88.7397 271.3961 13.20772014162884"
  },
  {
    "name": "ONEWEB-0638",
    "noradId": "55802",
    "line1": "1 55802U 23029G   26181.71367941 -.00000369  00000+0 -10311-2 0  9999",
    "line2": "2 55802  87.8961 287.0552 0001504  89.6386 270.4916 13.14503150161178"
  },
  {
    "name": "ONEWEB-0639",
    "noradId": "55803",
    "line1": "1 55803U 23029H   26181.75474499  .00000049  00000+0  90324-4 0  9998",
    "line2": "2 55803  87.9180 302.2733 0001995 129.0904 231.0407 13.19725564160697"
  },
  {
    "name": "ONEWEB-0640",
    "noradId": "55804",
    "line1": "1 55804U 23029J   26181.72319171 -.00000136  00000+0 -40049-3 0  9998",
    "line2": "2 55804  87.8961 287.0441 0001282 103.4721 256.6551 13.14502840161196"
  },
  {
    "name": "ONEWEB-0641",
    "noradId": "55805",
    "line1": "1 55805U 23029K   26181.75001355  .00000053  00000+0  10119-3 0  9995",
    "line2": "2 55805  87.9191 302.2647 0001938 105.8595 254.2752 13.19726008160706"
  },
  {
    "name": "ONEWEB-0642",
    "noradId": "55806",
    "line1": "1 55806U 23029L   26181.36620153 -.00000022  00000+0 -86351-4 0  9996",
    "line2": "2 55806  87.9189 302.3525 0002136 124.2091 235.9245 13.19725820160644"
  },
  {
    "name": "ONEWEB-0643",
    "noradId": "55807",
    "line1": "1 55807U 23029M   26181.31247534 -.00000106  00000+0 -31966-3 0  9994",
    "line2": "2 55807  87.8963 287.1132 0002338 116.3824 243.7546 13.14503726161116"
  },
  {
    "name": "ONEWEB-0644",
    "noradId": "55808",
    "line1": "1 55808U 23029N   26181.74054465  .00000066  00000+0  13145-3 0  9993",
    "line2": "2 55808  87.9181 302.2787 0002039 111.0484 249.0868 13.19725223160698"
  },
  {
    "name": "ONEWEB-0645",
    "noradId": "55809",
    "line1": "1 55809U 23029P   26181.38357172  .00000075  00000+0  15526-3 0  9990",
    "line2": "2 55809  87.9179 302.3464 0001611 112.1317 247.9987 13.19724915160642"
  },
  {
    "name": "ONEWEB-0646",
    "noradId": "55810",
    "line1": "1 55810U 23029Q   26181.32513066  .00000030  00000+0  43493-4 0  9998",
    "line2": "2 55810  87.9178 302.3587 0001982 108.5777 251.5571 13.19725927160621"
  },
  {
    "name": "ONEWEB-0648",
    "noradId": "55811",
    "line1": "1 55811U 23029R   26181.28076670  .00000269  00000+0  69027-3 0  9993",
    "line2": "2 55811  87.8972 287.0944 0001690 129.0619 231.0661 13.14501874161114"
  },
  {
    "name": "ONEWEB-0649",
    "noradId": "55812",
    "line1": "1 55812U 23029S   26181.72947887  .00000015  00000+0  63030-5 0  9999",
    "line2": "2 55812  87.9180 302.2756 0001785 107.5606 252.5722 13.19726266160710"
  },
  {
    "name": "ONEWEB-0650",
    "noradId": "55813",
    "line1": "1 55813U 23029T   26181.34565423 -.00000132  00000+0 -36270-3 0  9996",
    "line2": "2 55813  87.9181 302.3545 0002052 118.2612 241.8728 13.19727395160635"
  },
  {
    "name": "ONEWEB-0652",
    "noradId": "55814",
    "line1": "1 55814U 23029U   26181.71843550 -.00000024  00000+0 -99052-4 0  9996",
    "line2": "2 55814  87.8971 287.0141 0002056  96.5060 263.6304 13.14502070161147"
  },
  {
    "name": "ONEWEB-0653",
    "noradId": "55815",
    "line1": "1 55815U 23029V   26181.77868488 -.00000268  00000+0 -75689-3 0  9999",
    "line2": "2 55815  87.8972 287.0005 0001905  99.0467 261.0879 13.14501998161180"
  },
  {
    "name": "ONEWEB-0654",
    "noradId": "55816",
    "line1": "1 55816U 23029W   26181.69780947 -.00000140  00000+0 -41131-3 0  9998",
    "line2": "2 55816  87.8972 287.0123 0001996  89.7189 270.4169 13.14501339161195"
  },
  {
    "name": "ONEWEB-0656",
    "noradId": "55817",
    "line1": "1 55817U 23029X   26181.31031116  .00000026  00000+0  33001-4 0  9994",
    "line2": "2 55817  87.9198 271.8152 0002130  87.9938 272.1439 13.20773840162884"
  },
  {
    "name": "ONEWEB-0657",
    "noradId": "55818",
    "line1": "1 55818U 23029Y   26181.79583004 -.00000001  00000+0 -35644-4 0  9995",
    "line2": "2 55818  87.9180 302.2635 0002562  93.6471 266.4955 13.19725877160709"
  },
  {
    "name": "ONEWEB-0658",
    "noradId": "55819",
    "line1": "1 55819U 23029Z   26181.41200789  .00000067  00000+0  13454-3 0  9995",
    "line2": "2 55819  87.9189 302.3167 0002021 112.3023 247.8324 13.19725524160669"
  },
  {
    "name": "ONEWEB-0660",
    "noradId": "55820",
    "line1": "1 55820U 23029AA  26181.29502080  .00000076  00000+0  16989-3 0  9998",
    "line2": "2 55820  87.8979 287.0867 0001683 104.6850 255.4467 13.14503927161129"
  },
  {
    "name": "ONEWEB-0661",
    "noradId": "55821",
    "line1": "1 55821U 23029AB  26181.71051030 -.00000297  00000+0 -83540-3 0  9994",
    "line2": "2 55821  87.8963 287.0471 0001636 101.8175 258.3138 13.14503143161162"
  },
  {
    "name": "ONEWEB-0662",
    "noradId": "55822",
    "line1": "1 55822U 23029AC  26181.74539935  .00000235  00000+0  59991-3 0  9996",
    "line2": "2 55822  87.8959 287.0457 0001690 106.3989 253.7326 13.14503397161210"
  },
  {
    "name": "ONEWEB-0663",
    "noradId": "55823",
    "line1": "1 55823U 23029AD  26181.94906452 -.00000035  00000+0 -11721-3 0  9990",
    "line2": "2 55823  87.9199 271.7594 0001843 112.2322 247.9007 13.20870595162965"
  },
  {
    "name": "ONEWEB-0664",
    "noradId": "55824",
    "line1": "1 55824U 23029AE  26181.67565516  .00000077  00000+0  15762-3 0  9996",
    "line2": "2 55824  87.9182 271.7932 0001599  92.1068 268.0248 13.20771098162920"
  },
  {
    "name": "ONEWEB-0665",
    "noradId": "55825",
    "line1": "1 55825U 23029AF  26181.70733509 -.00000303  00000+0 -85079-3 0  9992",
    "line2": "2 55825  87.8964 287.0286 0001728 108.7410 251.3908 13.14503758161183"
  },
  {
    "name": "ONEWEB-0666",
    "noradId": "55826",
    "line1": "1 55826U 23029AG  26181.29012887  .00000010  00000+0 -76794-5 0  9996",
    "line2": "2 55826  87.9186 271.8604 0002707  95.1412 265.0031 13.20772180162886"
  }
]